NORAD_CAT_ID,OBJECT_NAME,OBJECT_TYPE,EPOCH,MEAN_MOTION,ECCENTRICITY,INCLINATION,RA_OF_ASC_NODE,ARG_OF_PERICENTER,MEAN_ANOMALY,BSTAR,MEAN_MOTION_DOT,MEAN_MOTION_DDOT,TLE_LINE0,TLE_LINE1,TLE_LINE2,SEMIMAJOR_AXIS,PERIOD,APOGEE,PERIGEE,DECAYED
51140.0,STARLINK-3175,PAYLOAD,2022-07-21 03:16:49,15.0882725,0.0002061,53.2169,138.7375,58.0824,302.0368,-0.00011191,-2.068e-05,0.0,0 STARLINK-3175,1 51140U 22005AN  22202.13668363 -.00002068  00000-0 -11191-3 0  9998,2 51140  53.2169 138.7375 0002061  58.0824 302.0368 15.08827250 29437,6917.919,95.438,541.21,538.359,0.0
51140.0,STARLINK-3175,PAYLOAD,2022-07-21 06:27:35,15.08825659,0.0002116,53.2168,138.1426,56.4524,303.6670000000001,-0.00014214,-2.549e-05,0.0,0 STARLINK-3175,1 51140U 22005AN  22202.26916624 -.00002549  00000-0 -14214-3 0  9991,2 51140  53.2168 138.1426 0002116  56.4524 303.6670 15.08825659 28340,6917.924,95.438,541.253,538.325,0.0
51140.0,STARLINK-3175,PAYLOAD,2022-07-22 04:42:59,15.08837714,0.0002266999999999,53.217,133.9799,55.0664,305.0541,2.252e-05,7e-07,0.0,0 STARLINK-3175,1 51140U 22005AN  22203.19652027  .00000070  00000-0  22520-4 0  9993,2 51140  53.2170 133.9799 0002267  55.0664 305.0541 15.08837714 28489,6917.887,95.438,541.321,538.184,0.0
51140.0,STARLINK-3175,PAYLOAD,2022-07-22 19:01:26,15.08841661,0.0001978,53.2167,131.3039,56.3531,303.765,0.0001456,2.03e-05,0.0,0 STARLINK-3175,1 51140U 22005AN  22203.79267307  .00002030  00000-0  14560-3 0  9994,2 51140  53.2167 131.3039 0001978  56.3531 303.7650 15.08841661 28571,6917.875,95.437,541.109,538.372,0.0
51140.0,STARLINK-3175,PAYLOAD,2022-07-23 04:33:45,15.08841063,0.0002086999999999,53.2169,129.5197,57.3896,302.7298,0.00027508,4.093e-05,0.0,0 STARLINK-3175,1 51140U 22005AN  22204.19011036  .00004093  00000-0  27508-3 0  9992,2 51140  53.2169 129.5197 0002087  57.3896 302.7298 15.08841063 29747,6917.877,95.437,541.186,538.298,0.0
51140.0,STARLINK-3175,PAYLOAD,2022-07-23 12:30:42,15.08829731,0.0002138,53.2169,128.0328,56.8187,303.301,0.0001452,2.023e-05,0.0,0 STARLINK-3175,1 51140U 22005AN  22204.52132259  .00002023  00000-0  14520-3 0  9991,2 51140  53.2169 128.0328 0002138  56.8187 303.3010 15.08829731 29793,6917.9119999999975,95.438,541.256,538.298,0.0
51140.0,STARLINK-3175,PAYLOAD,2022-07-24 04:24:33,15.08834542,0.0002106999999999,53.2171,125.0591,59.4165,300.7034,4.4928e-06,-2.17e-06,0.0,0 STARLINK-3175,1 51140U 22005AN  22205.18372587 -.00000217  00000-0  44928-5 0  9995,2 51140  53.2171 125.0591 0002107  59.4165 300.7034 15.08834542 28787,6917.897,95.438,541.22,538.304,0.0
51140.0,STARLINK-3175,PAYLOAD,2022-07-25 04:15:20,15.08838851,0.0002077,53.2175,120.599,62.3756,297.7447,-8.2804e-05,-1.606e-05,0.0,0 STARLINK-3175,1 51140U 22005AN  22206.17732408 -.00001606  00000-0 -82804-4 0  9995,2 51140  53.2175 120.5990 0002077  62.3756 297.7447 15.08838851 30041,6917.884,95.438,541.186,538.312,0.0
51140.0,STARLINK-3175,PAYLOAD,2022-07-25 18:33:49,15.08831114,0.0001966999999999,53.2162,117.9223,55.4193,304.6985,4.9806e-05,5.04e-06,0.0,0 STARLINK-3175,1 51140U 22005AN  22206.77348559  .00000504  00000-0  49806-4 0  9990,2 51140  53.2162 117.9223 0001967  55.4193 304.6985 15.08831114 29027,6917.908,95.438,541.133,538.4119999999998,0.0
51140.0,STARLINK-3175,PAYLOAD,2022-07-26 04:06:07,15.08838201,0.0001973,53.217,116.138,56.2391,303.8788,7.8489e-05,9.61e-06,0.0,0 STARLINK-3175,1 51140U 22005AN  22207.17092187  .00000961  00000-0  78489-4 0  9994,2 51140  53.2170 116.1380 0001973  56.2391 303.8788 15.08838201 29089,6917.886,95.438,541.116,538.386,0.0
51140.0,STARLINK-3175,PAYLOAD,2022-07-26 18:24:37,15.08821342,0.0002038,53.2174,113.4621,59.1218,300.9974,1.2076e-05,-9.6e-07,0.0,0 STARLINK-3175,1 51140U 22005AN  22207.76709569 -.00000096  00000-0  12076-4 0  9998,2 51140  53.2174 113.4621 0002038  59.1218 300.9974 15.08821342 29177,6917.937,95.439,541.212,538.393,0.0
51140.0,STARLINK-3175,PAYLOAD,2022-07-27 10:18:28,15.088312599999998,0.0002000999999999,53.2169,110.4888,56.2745,303.8437,6.7666e-05,7.89e-06,0.0,0 STARLINK-3175,1 51140U 22005AN  22208.42949292  .00000789  00000-0  67666-4 0  9994,2 51140  53.2169 110.4888 0002001  56.2745 303.8437 15.08831260 29273,6917.906999999997,95.438,541.156,538.388,0.0
51140.0,STARLINK-3175,PAYLOAD,2022-07-27 19:50:46,15.08838084,0.0002008999999999,53.2169,108.7044,56.6382,303.4802,4.3259e-05,4e-06,0.0,0 STARLINK-3175,1 51140U 22005AN  22208.82693101  .00000400  00000-0  43259-4 0  9995,2 51140  53.2169 108.7044 0002009  56.6382 303.4802 15.08838084 29336,6917.886,95.438,541.141,538.361,0.0
51140.0,STARLINK-3175,PAYLOAD,2022-07-28 03:47:42,15.08842431,0.0001976999999999,53.217,107.2176,58.1011,302.0173,7.9949e-05,9.85e-06,0.0,0 STARLINK-3175,1 51140U 22005AN  22209.15812775  .00000985  00000-0  79949-4 0  9995,2 51140  53.2170 107.2176 0001977  58.1011 302.0173 15.08842431 30493,6917.873000000001,95.437,541.106,538.37,0.0
51140.0,STARLINK-3175,PAYLOAD,2022-07-28 10:09:14,15.0884576,0.0001986,53.217,106.0282,58.6601,301.4585,8.015e-05,9.88e-06,0.0,0 STARLINK-3175,1 51140U 22005AN  22209.42308539  .00000988  00000-0  80150-4 0  9992,2 51140  53.2170 106.0282 0001986  58.6601 301.4585 15.08845760 29427,6917.863,95.437,541.102,538.354,0.0
51140.0,STARLINK-3175,PAYLOAD,2022-07-28 19:41:33,15.08845064,0.000199,53.217,104.2439,59.2124,300.9064,0.00017544,2.505e-05,0.0,0 STARLINK-3175,1 51140U 22005AN  22209.82052282  .00002505  00000-0  17544-3 0  9990,2 51140  53.2170 104.2439 0001990  59.2124 300.9064 15.08845064 29482,6917.865,95.437,541.107,538.3530000000002,0.0
51140.0,STARLINK-3175,PAYLOAD,2022-07-29 03:38:29,15.08834644,0.0001921999999999,53.217,102.7569,59.1762,300.9419,6.0793e-05,6.79e-06,0.0,0 STARLINK-3175,1 51140U 22005AN  22210.15173247  .00000679  00000-0  60793-4 0  9998,2 51140  53.2170 102.7569 0001922  59.1762 300.9419 15.08834644 30647,6917.897,95.438,541.091,538.432,0.0
51140.0,STARLINK-3175,PAYLOAD,2022-07-29 10:00:02,15.08837671,0.0001931,53.2171,101.5676,59.0383,301.0799,4.9105e-05,4.93e-06,0.0,0 STARLINK-3175,1 51140U 22005AN  22210.41669107  .00000493  00000-0  49105-4 0  9990,2 51140  53.2171 101.5676 0001931  59.0383 301.0799 15.08837671 29578,6917.888000000001,95.438,541.0880000000002,538.4169999999998,0.0
51140.0,STARLINK-3175,PAYLOAD,2022-07-30 09:50:49,15.08831389,0.0002037,53.2173,97.1072,60.5608,299.5587,-9.0645e-05,-1.73e-05,0.0,0 STARLINK-3175,1 51140U 22005AN  22211.41029893 -.00001730  00000-0 -90645-4 0  9995,2 51140  53.2173  97.1072 0002037  60.5608 299.5587 15.08831389 29728,6917.906999999997,95.438,541.181,538.363,0.0
51140.0,STARLINK-3175,PAYLOAD,2022-07-30 22:33:54,15.08834749,0.0001753,53.2173,94.7271,59.7579,300.3587,-6.2939e-05,-1.289e-05,0.0,0 STARLINK-3175,1 51140U 22005AN  22211.94021642 -.00001289  00000-0 -62939-4 0  9991,2 51140  53.2173  94.7271 0001753  59.7579 300.3587 15.08834749 29806,6917.896,95.438,540.974,538.549,0.0
51140.0,STARLINK-3175,PAYLOAD,2022-07-31 01:44:40,15.0883739,0.0001905,53.2173,94.1334,59.8775,300.2405,-5.1294e-05,-1.104e-05,0.0,0 STARLINK-3175,1 51140U 22005AN  22212.07269500 -.00001104  00000-0 -51294-4 0  9991,2 51140  53.2173  94.1334 0001905  59.8775 300.2405 15.08837390 30937,6917.888000000001,95.438,541.071,538.436,0.0
51140.0,STARLINK-3175,PAYLOAD,2022-07-31 09:41:36,15.0883369,0.0001940999999999,53.2173,92.6468,61.2248,298.8939,2.7137e-05,1.44e-06,0.0,0 STARLINK-3175,1 51140U 22005AN  22212.40389625  .00000144  00000-0  27137-4 0  9999,2 51140  53.2173  92.6468 0001941  61.2248 298.8939 15.08833690 29874,6917.9,95.438,541.107,538.422,0.0
51140.0,STARLINK-3175,PAYLOAD,2022-07-31 19:13:55,15.08837773,0.0001979,53.2172,90.8626,61.85,298.2692,3.0331e-05,1.95e-06,0.0,0 STARLINK-3175,1 51140U 22005AN  22212.80133501  .00000195  00000-0  30331-4 0  9999,2 51140  53.2172  90.8626 0001979  61.8500 298.2692 15.08837773 29930,6917.887,95.438,541.121,538.383,0.0
51140.0,STARLINK-3175,PAYLOAD,2022-08-01 01:35:27,15.08841523,0.0001881,53.2172,89.6733,70.7311,289.3885,2.6057e-05,1.27e-06,0.0,0 STARLINK-3175,1 51140U 22005AN  22213.06629303  .00000127  00000-0  26057-4 0  9993,2 51140  53.2172  89.6733 0001881  70.7311 289.3885 15.08841523 29973,6917.876,95.437,541.0419999999998,538.439,0.0
51140.0,STARLINK-3175,PAYLOAD,2022-08-01 17:29:19,15.08837685,0.0001975,53.2172,86.6998,62.462,297.6573,0.00011462,1.536e-05,0.0,0 STARLINK-3175,1 51140U 22005AN  22213.72869461  .00001536  00000-0  11462-3 0  9995,2 51140  53.2172  86.6998 0001975  62.4620 297.6573 15.08837685 31184,6917.887,95.438,541.119,538.386,0.0
51140.0,STARLINK-3175,PAYLOAD,2022-08-01 22:15:28,15.08834496,0.0001968,53.2173,85.8072,64.2993,295.8202,8.0882e-05,9.99e-06,0.0,0 STARLINK-3175,1 51140U 22005AN  22213.92741875  .00000999  00000-0  80882-4 0  9990,2 51140  53.2173  85.8072 0001968  64.2993 295.8202 15.08834496 30101,6917.897,95.438,541.124,538.401,0.0
51140.0,STARLINK-3175,PAYLOAD,2022-08-02 01:26:15,15.08827721,0.0001954,53.2172,85.2127,62.849,297.2701,7.085499999999999e-06,-1.75e-06,0.0,0 STARLINK-3175,1 51140U 22005AN  22214.05990584 -.00000175  00000-0  70855-5 0  9995,2 51140  53.2172  85.2127 0001954  62.8490 297.2701 15.08827721 31234,6917.918000000002,95.438,541.135,538.431,0.0
51140.0,STARLINK-3175,PAYLOAD,2022-08-03 07:38:34,15.08841364,0.0001948,53.2168,79.5627,62.3709,297.7481,3.6765e-05,2.97e-06,0.0,0 STARLINK-3175,1 51140U 22005AN  22215.31846023  .00000297  00000-0  36765-4 0  9998,2 51140  53.2168  79.5627 0001948  62.3709 297.7481 15.08841364 30318,6917.876,95.437,541.089,538.394,0.0
51140.0,STARLINK-3175,PAYLOAD,2022-08-03 17:10:53,15.08837037,0.0001916,53.2167,77.7785,63.1481,296.9707,0.00012689,1.732e-05,0.0,0 STARLINK-3175,1 51140U 22005AN  22215.71589952  .00001732  00000-0  12689-3 0  9990,2 51140  53.2167  77.7785 0001916  63.1481 296.9707 15.08837037 30373,6917.889,95.438,541.08,538.429,0.0
